[
  {
    "COMMENT": "GENERATED VIA SPACETRACK.ORG API",
    "ORIGINATOR": "18 SPCS",
    "NORAD_CAT_ID": "25260",
    "OBJECT_NAME": "SPOT 4",
    "OBJECT_TYPE": "PAYLOAD",
    "CLASSIFICATION_TYPE": "U",
    "INTLDES": "98017A",
    "EPOCH": "2023-08-29 16:10:46",
    "EPOCH_MICROSECONDS": "203168",
    "MEAN_MOTION": "14.54283477",
    "ECCENTRICITY": "0.0013823",
    "INCLINATION": "98.2639",
    "RA_OF_ASC_NODE": "333.7419",
    "ARG_OF_PERICENTER": "138.5827",
    "MEAN_ANOMALY": "221.642",
    "EPHEMERIS_TYPE": "0",
    "ELEMENT_SET_NO": "999",
    "REV_AT_EPOCH": "33083",
    "BSTAR": "0.00012049",
    "MEAN_MOTION_DOT": "0.00000466",
    "MEAN_MOTION_DDOT": "0",
    "FILE": "3992366",
    "TLE_LINE0": "0 SPOT 4",
    "TLE_LINE1": "1 25260U 98017A   23241.67414587  .00000466  00000-0  12049-3 0  9999",
    "TLE_LINE2": "2 25260  98.2639 333.7419 0013823 138.5827 221.6420 14.54283477330834",
    "OBJECT_ID": "1998-017A",
    "OBJECT_NUMBER": "25260",
    "SEMIMAJOR_AXIS": "7089.830",
    "PERIOD": "99.018",
    "APOGEE": "721.495",
    "PERIGEE": "701.894",
    "DECAYED": "0"
  },
  {
    "COMMENT": "GENERATED VIA SPACETRACK.ORG API",
    "ORIGINATOR": "18 SPCS",
    "NORAD_CAT_ID": "25260",
    "OBJECT_NAME": "SPOT 4",
    "OBJECT_TYPE": "PAYLOAD",
    "CLASSIFICATION_TYPE": "U",
    "INTLDES": "98017A",
    "EPOCH": "2023-08-29 19:28:55",
    "EPOCH_MICROSECONDS": "366752",
    "MEAN_MOTION": "14.5428356",
    "ECCENTRICITY": "0.0013822",
    "INCLINATION": "98.2639",
    "RA_OF_ASC_NODE": "333.8779",
    "ARG_OF_PERICENTER": "138.1554",
    "MEAN_ANOMALY": "222.0702",
    "EPHEMERIS_TYPE": "0",
    "ELEMENT_SET_NO": "999",
    "REV_AT_EPOCH": "33061",
    "BSTAR": "0.00011867",
    "MEAN_MOTION_DOT": "0.00000459",
    "MEAN_MOTION_DDOT": "0",
    "FILE": "3992439",
    "TLE_LINE0": "0 SPOT 4",
    "TLE_LINE1": "1 25260U 98017A   23241.81175193  .00000459  00000-0  11867-3 0  9991",
    "TLE_LINE2": "2 25260  98.2639 333.8779 0013822 138.1554 222.0702 14.54283560330613",
    "OBJECT_ID": "1998-017A",
    "OBJECT_NUMBER": "25260",
    "SEMIMAJOR_AXIS": "7089.829",
    "PERIOD": "99.018",
    "APOGEE": "721.494",
    "PERIGEE": "701.895",
    "DECAYED": "0"
  },
  {
    "COMMENT": "GENERATED VIA SPACETRACK.ORG API",
    "ORIGINATOR": "18 SPCS",
    "NORAD_CAT_ID": "25260",
    "OBJECT_NAME": "SPOT 4",
    "OBJECT_TYPE": "PAYLOAD",
    "CLASSIFICATION_TYPE": "U",
    "INTLDES": "98017A",
    "EPOCH": "2023-08-29 21:07:59",
    "EPOCH_MICROSECONDS": "945952",
    "MEAN_MOTION": "14.54283621",
    "ECCENTRICITY": "0.0013825",
    "INCLINATION": "98.2638",
    "RA_OF_ASC_NODE": "333.9458",
    "ARG_OF_PERICENTER": "137.9551",
    "MEAN_ANOMALY": "222.2709",
    "EPHEMERIS_TYPE": "0",
    "ELEMENT_SET_NO": "999",
    "REV_AT_EPOCH": "33086",
    "BSTAR": "0.00011872",
    "MEAN_MOTION_DOT": "0.00000459",
    "MEAN_MOTION_DDOT": "0",
    "FILE": "3992692",
    "TLE_LINE0": "0 SPOT 4",
    "TLE_LINE1": "1 25260U 98017A   23241.88055493  .00000459  00000-0  11872-3 0  9994",
    "TLE_LINE2": "2 25260  98.2638 333.9458 0013825 137.9551 222.2709 14.54283621330868",
    "OBJECT_ID": "1998-017A",
    "OBJECT_NUMBER": "25260",
    "SEMIMAJOR_AXIS": "7089.829",
    "PERIOD": "99.018",
    "APOGEE": "721.496",
    "PERIGEE": "701.892",
    "DECAYED": "0"
  },
  {
    "COMMENT": "GENERATED VIA SPACETRACK.ORG API",
    "ORIGINATOR": "18 SPCS",
    "NORAD_CAT_ID": "25260",
    "OBJECT_NAME": "SPOT 4",
    "OBJECT_TYPE": "PAYLOAD",
    "CLASSIFICATION_TYPE": "U",
    "INTLDES": "98017A",
    "EPOCH": "2023-08-30 07:02:27",
    "EPOCH_MICROSECONDS": "410784",
    "MEAN_MOTION": "14.54284047",
    "ECCENTRICITY": "0.001384",
    "INCLINATION": "98.2638",
    "RA_OF_ASC_NODE": "334.3534",
    "ARG_OF_PERICENTER": "136.78",
    "MEAN_ANOMALY": "223.4485",
    "EPHEMERIS_TYPE": "0",
    "ELEMENT_SET_NO": "999",
    "REV_AT_EPOCH": "33092",
    "BSTAR": "0.00011866",
    "MEAN_MOTION_DOT": "0.00000458",
    "MEAN_MOTION_DDOT": "0",
    "FILE": "3992937",
    "TLE_LINE0": "0 SPOT 4",
    "TLE_LINE1": "1 25260U 98017A   23242.29337281  .00000458  00000-0  11866-3 0  9990",
    "TLE_LINE2": "2 25260  98.2638 334.3534 0013840 136.7800 223.4485 14.54284047330923",
    "OBJECT_ID": "1998-017A",
    "OBJECT_NUMBER": "25260",
    "SEMIMAJOR_AXIS": "7089.828",
    "PERIOD": "99.018",
    "APOGEE": "721.505",
    "PERIGEE": "701.880",
    "DECAYED": "0"
  },
  {
    "COMMENT": "GENERATED VIA SPACETRACK.ORG API",
    "ORIGINATOR": "18 SPCS",
    "NORAD_CAT_ID": "25260",
    "OBJECT_NAME": "SPOT 4",
    "OBJECT_TYPE": "PAYLOAD",
    "CLASSIFICATION_TYPE": "U",
    "INTLDES": "98017A",
    "EPOCH": "2023-08-30 11:59:41",
    "EPOCH_MICROSECONDS": "141472",
    "MEAN_MOTION": "14.54284239",
    "ECCENTRICITY": "0.0013856",
    "INCLINATION": "98.2639",
    "RA_OF_ASC_NODE": "334.5573",
    "ARG_OF_PERICENTER": "136.183",
    "MEAN_ANOMALY": "224.0469",
    "EPHEMERIS_TYPE": "0",
    "ELEMENT_SET_NO": "999",
    "REV_AT_EPOCH": "33095",
    "BSTAR": "0.00011876",
    "MEAN_MOTION_DOT": "0.00000459",
    "MEAN_MOTION_DDOT": "0",
    "FILE": "3993241",
    "TLE_LINE0": "0 SPOT 4",
    "TLE_LINE1": "1 25260U 98017A   23242.49978173  .00000459  00000-0  11876-3 0  9995",
    "TLE_LINE2": "2 25260  98.2639 334.5573 0013856 136.1830 224.0469 14.54284239330958",
    "OBJECT_ID": "1998-017A",
    "OBJECT_NUMBER": "25260",
    "SEMIMAJOR_AXIS": "7089.827",
    "PERIOD": "99.018",
    "APOGEE": "721.516",
    "PERIGEE": "701.868",
    "DECAYED": "0"
  },
  {
    "COMMENT": "GENERATED VIA SPACETRACK.ORG API",
    "ORIGINATOR": "18 SPCS",
    "NORAD_CAT_ID": "25260",
    "OBJECT_NAME": "SPOT 4",
    "OBJECT_TYPE": "PAYLOAD",
    "CLASSIFICATION_TYPE": "U",
    "INTLDES": "98017A",
    "EPOCH": "2023-08-30 11:59:41",
    "EPOCH_MICROSECONDS": "141472",
    "MEAN_MOTION": "14.54284239",
    "ECCENTRICITY": "0.0013856",
    "INCLINATION": "98.2639",
    "RA_OF_ASC_NODE": "334.5573",
    "ARG_OF_PERICENTER": "136.183",
    "MEAN_ANOMALY": "224.0469",
    "EPHEMERIS_TYPE": "0",
    "ELEMENT_SET_NO": "999",
    "REV_AT_EPOCH": "33071",
    "BSTAR": "0.00011876",
    "MEAN_MOTION_DOT": "0.00000459",
    "MEAN_MOTION_DDOT": "0",
    "FILE": "3993321",
    "TLE_LINE0": "0 SPOT 4",
    "TLE_LINE1": "1 25260U 98017A   23242.49978173  .00000459  00000-0  11876-3 0  9995",
    "TLE_LINE2": "2 25260  98.2639 334.5573 0013856 136.1830 224.0469 14.54284239330712",
    "OBJECT_ID": "1998-017A",
    "OBJECT_NUMBER": "25260",
    "SEMIMAJOR_AXIS": "7089.827",
    "PERIOD": "99.018",
    "APOGEE": "721.516",
    "PERIGEE": "701.868",
    "DECAYED": "0"
  },
  {
    "COMMENT": "GENERATED VIA SPACETRACK.ORG API",
    "ORIGINATOR": "18 SPCS",
    "NORAD_CAT_ID": "25260",
    "OBJECT_NAME": "SPOT 4",
    "OBJECT_TYPE": "PAYLOAD",
    "CLASSIFICATION_TYPE": "U",
    "INTLDES": "98017A",
    "EPOCH": "2023-08-30 23:33:13",
    "EPOCH_MICROSECONDS": "159584",
    "MEAN_MOTION": "14.54284777",
    "ECCENTRICITY": "0.0013874",
    "INCLINATION": "98.2638",
    "RA_OF_ASC_NODE": "335.0329",
    "ARG_OF_PERICENTER": "134.799",
    "MEAN_ANOMALY": "225.4337",
    "EPHEMERIS_TYPE": "0",
    "ELEMENT_SET_NO": "999",
    "REV_AT_EPOCH": "33102",
    "BSTAR": "0.00012051",
    "MEAN_MOTION_DOT": "0.00000466",
    "MEAN_MOTION_DDOT": "0",
    "FILE": "3993577",
    "TLE_LINE0": "0 SPOT 4",
    "TLE_LINE1": "1 25260U 98017A   23242.98140231  .00000466  00000-0  12051-3 0  9999",
    "TLE_LINE2": "2 25260  98.2638 335.0329 0013874 134.7990 225.4337 14.54284777331028",
    "OBJECT_ID": "1998-017A",
    "OBJECT_NUMBER": "25260",
    "SEMIMAJOR_AXIS": "7089.825",
    "PERIOD": "99.018",
    "APOGEE": "721.527",
    "PERIGEE": "701.854",
    "DECAYED": "0"
  },
  {
    "COMMENT": "GENERATED VIA SPACETRACK.ORG API",
    "ORIGINATOR": "18 SPCS",
    "NORAD_CAT_ID": "25260",
    "OBJECT_NAME": "SPOT 4",
    "OBJECT_TYPE": "PAYLOAD",
    "CLASSIFICATION_TYPE": "U",
    "INTLDES": "98017A",
    "EPOCH": "2023-08-30 23:33:13",
    "EPOCH_MICROSECONDS": "159584",
    "MEAN_MOTION": "14.54284777",
    "ECCENTRICITY": "0.0013874",
    "INCLINATION": "98.2638",
    "RA_OF_ASC_NODE": "335.0329",
    "ARG_OF_PERICENTER": "134.799",
    "MEAN_ANOMALY": "225.4337",
    "EPHEMERIS_TYPE": "0",
    "ELEMENT_SET_NO": "999",
    "REV_AT_EPOCH": "33078",
    "BSTAR": "0.00012051",
    "MEAN_MOTION_DOT": "0.00000466",
    "MEAN_MOTION_DDOT": "0",
    "FILE": "3994074",
    "TLE_LINE0": "0 SPOT 4",
    "TLE_LINE1": "1 25260U 98017A   23242.98140231  .00000466  00000-0  12051-3 0  9999",
    "TLE_LINE2": "2 25260  98.2638 335.0329 0013874 134.7990 225.4337 14.54284777330780",
    "OBJECT_ID": "1998-017A",
    "OBJECT_NUMBER": "25260",
    "SEMIMAJOR_AXIS": "7089.825",
    "PERIOD": "99.018",
    "APOGEE": "721.527",
    "PERIGEE": "701.854",
    "DECAYED": "0"
  }
]